ORBCOMM FM114           
1 41179U 15081A   24333.20827437  .00003643  00000+0  82971-3 0  9990
2 41179  46.9999 155.6893 0002382 169.9054 190.1880 14.57526834475149
ORBCOMM FM110           
1 41182U 15081D   24333.25297700  .00003350  00000+0  76580-3 0  9997
2 41182  46.9986 154.8581 0001904 273.0338  87.0329 14.57538449475029
ORBCOMM FM112           
1 41184U 15081F   24333.57401415  .00003744  00000+0  85279-3 0  9996
2 41184  46.9988  62.3801 0001963 225.5240 134.5485 14.57466574476447
ORBCOMM FM113           
1 41185U 15081G   24333.55153778  .00003733  00000+0  85016-3 0  9998
2 41185  47.0005  62.7883 0002159 242.5901 117.4765 14.57478238476378
ORBCOMM FM108           
1 41187U 15081J   24333.36744538  .00003570  00000+0  81433-3 0  9997
2 41187  47.0046 334.9196 0001565  81.9375 278.1688 14.57496287477493
ORBCOMM FM117           
1 41188U 15081K   24333.47127882  .00003594  00000+0  81971-3 0  9990
2 41188  47.0011 333.2646 0001769 108.4036 251.7042 14.57499016477554
ORBCOMM FM116           
1 41189U 15081L   24333.52929030  .00003804  00000+0  86573-3 0  9999
2 41189  47.0020  62.8264 0002855 226.5688 133.4960 14.57477945476447
CHUBUSAT-2              
1 41338U 16012B   24333.49053264  .00013097  00000+0  73773-3 0  9996
2 41338  31.0014  50.6878 0010712  91.5013 268.6853 15.11961790482455
CHUBUSAT-3              
1 41339U 16012C   24333.64829192  .00012337  00000+0  71416-3 0  9993
2 41339  31.0080  49.4627 0010807  95.3064 264.8808 15.10971985482443
HORYU-4                 
1 41340U 16012D   24333.36958123  .00033709  00000+0  13075-2 0  9993
2 41340  31.0017 339.6314 0009956 211.9946 148.0093 15.24892091483153
ZIYUAN 3-2 (ZY 3-2)     
1 41556U 16033A   24333.79224231  .00019018  00000+0  84761-3 0  9996
2 41556  97.4423  47.4089 0005958 117.9976 242.1864 15.21453000472024
CARTOSAT-2C             
1 41599U 16040A   24333.81643181  .00012673  00000+0  60407-3 0  9994
2 41599  97.4536  30.9456 0013534 302.8405  57.1526 15.19163342467872
LAPAN-A3                
1 41603U 16040E   24333.80151929  .00008964  00000+0  33516-3 0  9992
2 41603  97.1390 340.2797 0009891 230.7350 129.3013 15.27509153468335
BIROS                   
1 41604U 16040F   24333.50599506  .00038497  00000+0  75616-3 0  9998
2 41604  97.1091 357.9985 0007949 153.4291 206.7368 15.47177829469501
M3MSAT                  
1 41605U 16040G   24333.46532981  .00038904  00000+0  76561-3 0  9991
2 41605  97.1066 355.0821 0007269 170.3704 189.7687 15.47125616469314
GAOFEN-3                
1 41727U 16049A   24333.79056464  .00000388  00000+0  13100-3 0  9993
2 41727  98.4054 339.0311 0001246  89.3628 270.7705 14.42228710437140
QSS (MOZI)              
1 41731U 16051A   24333.78084273  .00025167  00000+0  54942-3 0  9990
2 41731  97.3036 245.5381 0008760   7.5007 352.6370 15.44155871462036
PRATHAM                 
1 41783U 16059A   24333.50142076  .00002762  00000+0  51227-3 0  9990
2 41783  97.8296 345.1542 0031083 217.1446 142.7607 14.65704994436605
ALSAT 1N                
1 41789U 16059G   24333.79648159  .00003521  00000+0  62589-3 0  9997
2 41789  97.8170 351.7327 0026405 191.0382 169.0248 14.67517511437026
CAS-2T & KS-1Q          
1 41847U 16066G   24333.43475902  .00003054  00000+0  44478-3 0  9993
2 41847  98.4451  43.4924 0350590  42.4150 320.3575 14.42464432423166
YUNHAI-1 01             
1 41857U 16068A   24333.81323113  .00001070  00000+0  40623-3 0  9998
2 41857  98.5924 338.6450 0005152 225.2286 134.8479 14.33110171420861
RESOURCESAT-2A          
1 41877U 16074A   24333.76696051  .00000662  00000+0  32141-3 0  9997
2 41877  98.6306  43.7648 0000731 170.4425 189.6767 14.21662191413978
TANSAT                  
1 41898U 16081A   24333.77028127  .00001787  00000+0  38933-3 0  9996
2 41898  98.4915 307.9427 0019497 255.5333 104.3702 14.59093762422142
JILIN-1 03              
1 41914U 17002B   24333.85142230  .00020510  00000+0  81455-3 0  9992
2 41914  97.2090 344.1966 0009965  50.0313 310.1799 15.25309013435216
KAIDUN 1                
1 41915U 17002C   24333.85739432  .00047284  00000+0  11562-2 0  9997
2 41915  97.1844 357.6134 0005660  25.2316 334.9207 15.40642898436121
CARTOSAT-2D             
1 41948U 17008A   24333.78147492  .00014186  00000+0  67713-3 0  9995
2 41948  97.4053  30.0813 0005692  48.1667 312.0052 15.19153405431730
ZHUHAI-1 02 (CAS-4B)    
1 42759U 17034B   24333.55186927  .00048173  00000+0  11757-2 0  9995
2 42759  43.0156  10.6722 0013353  25.8816 334.2706 15.40028969412636
ZHUHAI-1 01 (CAS-4A)    
1 42761U 17034D   24333.60010699  .00049633  00000+0  11987-2 0  9993
2 42761  43.0190   8.5612 0013929  35.8615 324.3174 15.40326930412658
CARTOSAT-2E             
1 42767U 17036C   24333.79879924  .00013294  00000+0  63434-3 0  9994
2 42767  97.4174  30.4629 0002973 108.0568 252.0991 15.19190272412308
D-SAT                   
1 42794U 17036AF  24333.67176959  .00019307  00000+0  12049-2 0  9995
2 42794  97.4948 310.0589 0100005 309.5355  49.7065 15.05399145405452
IRIDIUM 113             
1 42803U 17039A   24332.58045371  .00000877  00000+0  30590-3 0  9995
2 42803  86.4013 198.9273 0002518  89.9404 270.2080 14.34227695389978
NORSAT 2                
1 42828U 17042D   24333.43521055  .00021046  00000+0  14198-2 0  9995
2 42828  97.3771 152.0442 0012571 211.0341 149.0146 15.06585278402105
TECHNOSAT               
1 42829U 17042E   24333.79923729  .00009175  00000+0  75643-3 0  9991
2 42829  97.3859 145.9960 0011319 239.8674 120.1429 14.99198018401819
FLYING LAPTOP           
1 42831U 17042G   24333.53369834  .00006839  00000+0  59962-3 0  9997
2 42831  97.3882 145.2163 0011418 242.2743 117.7322 14.96898977401701
WNISAT 1R               
1 42835U 17042L   24333.73209909  .00006378  00000+0  55542-3 0  9997
2 42835  97.3869 145.2906 0010661 238.2168 121.8017 14.97191851401761
LEMUR-2-GREENBERG       
1 42837U 17042N   24333.29439606  .00025995  00000+0  15566-2 0  9996
2 42837  97.3585 154.9374 0012781 185.0141 175.0964 15.10914678402364
LEMUR-2-FURIAUS         
1 42840U 17042R   24333.78471828  .00024159  00000+0  15148-2 0  9993
2 42840  97.3606 154.8712 0011046 238.8614 121.1533 15.09269143402353
CORVUS BC2              
1 42846U 17042X   24333.48153687  .00009501  00000+0  75982-3 0  9993
2 42846  97.3688 149.7551 0009986 222.6545 137.3905 15.00368171402058
CORVUS BC1              
1 42847U 17042Y   24333.75946382  .00010006  00000+0  79694-3 0  9992
2 42847  97.3676 150.4314 0009148 199.9496 160.1372 15.00516244402118
VRSS-2                  
1 42954U 17060A   24333.82175163  .00003614  00000+0  48905-3 0  9998
2 42954  97.7330  23.9224 0018564 142.2300 218.0219 14.79472334384803
MOHAMMED VI-A           
1 43005U 17070A   24333.83696461  .00003158  00000+0  45405-3 0  9992
2 43005  97.9604  43.2509 0001157  74.9855 285.1484 14.77108422380520
FENGYUN 3D              
1 43010U 17072A   24333.83139492  .00000481  00000+0  24966-3 0  9991
2 43010  98.9348 289.6375 0000899 184.5880 175.5287 14.19508131364776
CZ-4C R/B               
1 43012U 17072C   24333.49870988  .00001672  00000+0  33829-3 0  9998
2 43012  98.5885  52.5631 0125371  93.4248 268.1299 14.57864876374182
NOAA 20 (JPSS-1)        
1 43013U 17073A   24333.85195859  .00000335  00000+0  17952-3 0  9991
2 43013  98.7226 269.1045 0002346  90.2573 269.8872 14.19576451364261
MIRATA                  
1 43015U 17073C   24333.13477575  .00057095  00000+0  19036-2 0  9991
2 43015  97.5684 217.1987 0136937  55.6667 305.7439 15.22260000381138
MAKERSAT 0              
1 43016U 17073D   24333.40191470  .00026778  00000+0  12958-2 0  9999
2 43016  97.5472 208.3336 0173479  84.8179 277.2820 15.06200891380565
RADFXSAT (FOX-1B)       
1 43017U 17073E   24333.47976407  .00016321  00000+0  90236-3 0  9997
2 43017  97.5519 203.4833 0195953 101.6889 260.6394 14.98970576380222
EAGLESAT 1              
1 43018U 17073F   24333.58497569  .00055831  00000+0  19340-2 0  9992
2 43018  97.5686 217.2254 0141308  59.6563 301.8560 15.20579942380944
JILIN-1 04              
1 43022U 17074A   24333.87257491  .00018614  00000+0  72714-3 0  9991
2 43022  97.4848  65.0714 0006678  60.6694 299.5210 15.25913321387596
JILIN-1 05              
1 43023U 17074B   24333.88102475  .00013602  00000+0  55325-3 0  9995
2 43023  97.4876  65.5055 0007243  73.1536 287.0495 15.24626412387592
JILIN-1 06              
1 43024U 17074C   24333.79022677  .00017160  00000+0  74840-3 0  9997
2 43024  97.4865  63.5142 0009824  80.6345 279.6001 15.22189186387460
IRIDIUM 116             
1 43072U 17083C   24333.39230495  .00000251  00000+0  82520-4 0  9993
2 43072  86.4007 198.4553 0001814  82.2462 277.8940 14.34218008363073
IRIDIUM 130             
1 43073U 17083D   24333.56989777  .00000153  00000+0  47653-4 0  9996
2 43073  86.4012 198.6007 0002040  80.3082 279.8344 14.34218087363049
LKW-2                   
1 43080U 17084A   24333.83616027  .00017981  00000+0  75884-3 0  9993
2 43080  97.2021  28.0010 0002795 185.4538 174.6670 15.23331552385586
SUPERVIEW-1 03          
1 43099U 18002A   24333.85933329  .00029272  00000+0  98341-3 0  9992
2 43099  97.3628  55.2332 0030076  14.6063 345.6040 15.30352615381957
SUPERVIEW-1 04          
1 43100U 18002B   24333.75182591  .00085555  00000+0  12906-2 0  9999
2 43100  97.3640  56.7651 0000605 253.3072 106.8115 15.54471657382024
CARTOSAT-2F             
1 43111U 18004A   24333.83118427  .00013040  00000+0  62367-3 0  9996
2 43111  97.4112  30.4692 0001091  44.8708 315.2615 15.19117077381499
CARBONITE 2             
1 43115U 18004E   24333.51675327  .00073724  00000+0  10257-2 0  9997
2 43115  97.2472  45.2339 0005455  34.0503 326.1102 15.56710724383363
LKW-3                   
1 43146U 18006A   24333.78499417  .00021440  00000+0  89647-3 0  9994
2 43146  97.5918 109.8696 0004474 195.6481 164.4618 15.23610823382353
